start=new Date('2022-03-13T00:00:00.000Z').valueOf();
sats=[{"MEAN_ELEMENT_THEORY":"SGP4","GP_ID":"198604136","EPHEMERIS_TYPE":"0","MEAN_MOTION":"15.06405943","MEAN_ANOMALY":"303.0266","RCS_SIZE":"LARGE","RA_OF_ASC_NODE":"96.4242","LAUNCH_DATE":"2021-01-20","PERIAPSIS":"545.853","CLASSIFICATION_TYPE":"U","TLE_LINE2":"2 47384  53.0542  96.4242 0001938  57.0910 303.0266 15.06405943 63722","COUNTRY_CODE":"US","INCLINATION":"53.0542","OBJECT_TYPE":"PAYLOAD","TLE_LINE1":"1 47384U 21005AM  22071.78368681 -.00002529  00000-0 -15088-3 0  9998","TIME_SYSTEM":"UTC","DECAY_DATE":null,"BSTAR":"-0.00015088000000","REV_AT_EPOCH":"6372","SITE":"AFETR","MEAN_MOTION_DDOT":"0.0000000000000","APOAPSIS":"548.537","EPOCH":"2022-03-12T18:48:30.540384","NORAD_CAT_ID":"47384","ECCENTRICITY":"0.00019380","CENTER_NAME":"EARTH","ARG_OF_PERICENTER":"57.0910","OBJECT_ID":"2021-005AM","PERIOD":"95.592","ELEMENT_SET_NO":"999","REF_FRAME":"TEME","FILE":"3356931","SEMIMAJOR_AXIS":"6925.330","OBJECT_NAME":"STARLINK-2104","MEAN_MOTION_DOT":"-0.00002529"},{"MEAN_MOTION":"15.06405851","MEAN_ANOMALY":"301.9030","EPHEMERIS_TYPE":"0","GP_ID":"198604888","MEAN_ELEMENT_THEORY":"SGP4","DECAY_DATE":null,"TIME_SYSTEM":"UTC","TLE_LINE1":"1 47385U 21005AN  22071.80306626  .00000997  00000-0  85842-4 0  9994","INCLINATION":"53.0539","COUNTRY_CODE":"US","OBJECT_TYPE":"PAYLOAD","CLASSIFICATION_TYPE":"U","TLE_LINE2":"2 47385  53.0539  96.3295 0001754  58.2130 301.9030 15.06405851 63723","PERIAPSIS":"545.981","LAUNCH_DATE":"2021-01-20","RCS_SIZE":"LARGE","RA_OF_ASC_NODE":"96.3295","ECCENTRICITY":"0.00017540","CENTER_NAME":"EARTH","EPOCH":"2022-03-12T19:16:24.924864","NORAD_CAT_ID":"47385","APOAPSIS":"548.410","MEAN_MOTION_DDOT":"0.0000000000000","REV_AT_EPOCH":"6372","SITE":"AFETR","BSTAR":"0.00008584200000","MEAN_MOTION_DOT":"0.00000997","OBJECT_NAME":"STARLINK-2105","FILE":"3356931","SEMIMAJOR_AXIS":"6925.331","ELEMENT_SET_NO":"999","REF_FRAME":"TEME","PERIOD":"95.592","ARG_OF_PERICENTER":"58.2130","OBJECT_ID":"2021-005AN"},{"MEAN_ANOMALY":"308.8089","MEAN_MOTION":"15.06395767","EPHEMERIS_TYPE":"0","GP_ID":"198605639","MEAN_ELEMENT_THEORY":"SGP4","DECAY_DATE":null,"TIME_SYSTEM":"UTC","TLE_LINE1":"1 47386U 21005AP  22071.76621363  .00000535  00000-0  54808-4 0  9994","OBJECT_TYPE":"PAYLOAD","INCLINATION":"53.0540","COUNTRY_CODE":"US","TLE_LINE2":"2 47386  53.0540  96.4966 0001883  51.3068 308.8089 15.06395767 63723","CLASSIFICATION_TYPE":"U","PERIAPSIS":"545.922","LAUNCH_DATE":"2021-01-20","RA_OF_ASC_NODE":"96.4966","RCS_SIZE":"LARGE","ECCENTRICITY":"0.00018830","CENTER_NAME":"EARTH","NORAD_CAT_ID":"47386","EPOCH":"2022-03-12T18:23:20.857632","APOAPSIS":"548.531","MEAN_MOTION_DDOT":"0.0000000000000","SITE":"AFETR","REV_AT_EPOCH":"6372","BSTAR":"0.00005480800000","MEAN_MOTION_DOT":"0.00000535","OBJECT_NAME":"STARLINK-2106","FILE":"3356931","SEMIMAJOR_AXIS":"6925.362","ELEMENT_SET_NO":"999","REF_FRAME":"TEME","PERIOD":"95.592","ARG_OF_PERICENTER":"51.3068","OBJECT_ID":"2021-005AP"},{"CENTER_NAME":"EARTH","ECCENTRICITY":"0.00016860","EPOCH":"2022-03-12T21:14:29.919264","NORAD_CAT_ID":"47387","APOAPSIS":"548.371","MEAN_MOTION_DDOT":"0.0000000000000","REV_AT_EPOCH":"6331","SITE":"AFETR","BSTAR":"-0.00015430000000","MEAN_MOTION_DOT":"-0.00002579","OBJECT_NAME":"STARLINK-2108","FILE":"3356931","SEMIMAJOR_AXIS":"6925.338","REF_FRAME":"TEME","ELEMENT_SET_NO":"999","PERIOD":"95.592","OBJECT_ID":"2021-005AQ","ARG_OF_PERICENTER":"83.8190","MEAN_MOTION":"15.06403424","MEAN_ANOMALY":"276.2991","EPHEMERIS_TYPE":"0","GP_ID":"198604387","MEAN_ELEMENT_THEORY":"SGP4","DECAY_DATE":null,"TIME_SYSTEM":"UTC","TLE_LINE1":"1 47387U 21005AQ  22071.88506851 -.00002579  00000-0 -15430-3 0  9991","INCLINATION":"53.0514","COUNTRY_CODE":"US","OBJECT_TYPE":"PAYLOAD","CLASSIFICATION_TYPE":"U","TLE_LINE2":"2 47387  53.0514 125.9595 0001686  83.8190 276.2991 15.06403424 63313","PERIAPSIS":"546.035","LAUNCH_DATE":"2021-01-20","RCS_SIZE":"LARGE","RA_OF_ASC_NODE":"125.9595"},{"EPOCH":"2022-03-12T15:13:33.608928","NORAD_CAT_ID":"47388","ECCENTRICITY":"0.00018120","CENTER_NAME":"EARTH","REV_AT_EPOCH":"6327","SITE":"AFETR","BSTAR":"-0.00026047000000","APOAPSIS":"548.434","MEAN_MOTION_DDOT":"0.0000000000000","OBJECT_NAME":"STARLINK-2109","FILE":"3356931","SEMIMAJOR_AXIS":"6925.314","MEAN_MOTION_DOT":"-0.00004160","ARG_OF_PERICENTER":"50.9550","OBJECT_ID":"2021-005AR","ELEMENT_SET_NO":"999","REF_FRAME":"TEME","PERIOD":"95.591","MEAN_MOTION":"15.06411173","MEAN_ANOMALY":"309.1600","EPHEMERIS_TYPE":"0","MEAN_ELEMENT_THEORY":"SGP4","GP_ID":"198604637","TLE_LINE1":"1 47388U 21005AR  22071.63441677 -.00004160  00000-0 -26047-3 0  9993","COUNTRY_CODE":"US","INCLINATION":"53.0524","OBJECT_TYPE":"PAYLOAD","DECAY_DATE":null,"TIME_SYSTEM":"UTC","LAUNCH_DATE":"2021-01-20","RCS_SIZE":"LARGE","RA_OF_ASC_NODE":"127.0876","CLASSIFICATION_TYPE":"U","TLE_LINE2":"2 47388  53.0524 127.0876 0001812  50.9550 309.1600 15.06411173 63274","PERIAPSIS":"545.924"},{"EPOCH":"2022-03-12T19:31:00.434208","NORAD_CAT_ID":"47389","ECCENTRICITY":"0.00016380","CENTER_NAME":"EARTH","REV_AT_EPOCH":"6358","SITE":"AFETR","BSTAR":"-0.00008533300000","APOAPSIS":"548.347","MEAN_MOTION_DDOT":"0.0000000000000","OBJECT_NAME":"STARLINK-2110","FILE":"3356931","SEMIMAJOR_AXIS":"6925.348","MEAN_MOTION_DOT":"-0.00001552","OBJECT_ID":"2021-005AS","ARG_OF_PERICENTER":"56.7912","ELEMENT_SET_NO":"999","REF_FRAME":"TEME","PERIOD":"95.592","MEAN_MOTION":"15.06400191","MEAN_ANOMALY":"303.3233","EPHEMERIS_TYPE":"0","MEAN_ELEMENT_THEORY":"SGP4","GP_ID":"198605389","TLE_LINE1":"1 47389U 21005AS  22071.81319947 -.00001552  00000-0 -85333-4 0  9994","COUNTRY_CODE":"US","INCLINATION":"53.0559","OBJECT_TYPE":"PAYLOAD","DECAY_DATE":null,"TIME_SYSTEM":"UTC","LAUNCH_DATE":"2021-01-20","RCS_SIZE":"LARGE","RA_OF_ASC_NODE":"106.2870","CLASSIFICATION_TYPE":"U","TLE_LINE2":"2 47389  53.0559 106.2870 0001638  56.7912 303.3233 15.06400191 63588","PERIAPSIS":"546.079"},{"SEMIMAJOR_AXIS":"6925.329","FILE":"3356931","OBJECT_NAME":"STARLINK-2111","MEAN_MOTION_DOT":"-0.00001464","ARG_OF_PERICENTER":"62.4570","OBJECT_ID":"2021-005AT","PERIOD":"95.592","ELEMENT_SET_NO":"999","REF_FRAME":"TEME","NORAD_CAT_ID":"47390","EPOCH":"2022-03-12T20:58:34.809600","ECCENTRICITY":"0.00015690","CENTER_NAME":"EARTH","BSTAR":"-0.00007940200000","SITE":"AFETR","REV_AT_EPOCH":"6331","MEAN_MOTION_DDOT":"0.0000000000000","APOAPSIS":"548.280","OBJECT_TYPE":"PAYLOAD","INCLINATION":"53.0539","COUNTRY_CODE":"US","TLE_LINE1":"1 47390U 21005AT  22071.87401400 -.00001464  00000-0 -79402-4 0  9990","TIME_SYSTEM":"UTC","DECAY_DATE":null,"RA_OF_ASC_NODE":"126.0062","RCS_SIZE":"LARGE","LAUNCH_DATE":"2021-01-20","PERIAPSIS":"546.107","TLE_LINE2":"2 47390  53.0539 126.0062 0001569  62.4570 297.6578 15.06406481 63314","CLASSIFICATION_TYPE":"U","MEAN_ANOMALY":"297.6578","MEAN_MOTION":"15.06406481","GP_ID":"198605139","MEAN_ELEMENT_THEORY":"SGP4","EPHEMERIS_TYPE":"0"},{"REV_AT_EPOCH":"6368","SITE":"AFETR","BSTAR":"0.00001940500000","APOAPSIS":"548.486","MEAN_MOTION_DDOT":"0.0000000000000","EPOCH":"2022-03-12T13:14:07.650816","NORAD_CAT_ID":"47391","CENTER_NAME":"EARTH","ECCENTRICITY":"0.00018150","OBJECT_ID":"2021-005AU","ARG_OF_PERICENTER":"55.0441","ELEMENT_SET_NO":"999","REF_FRAME":"TEME","PERIOD":"95.592","OBJECT_NAME":"STARLINK-2112","SEMIMAJOR_AXIS":"6925.364","FILE":"3356931","MEAN_MOTION_DOT":"0.00000007","EPHEMERIS_TYPE":"0","GP_ID":"198603887","MEAN_ELEMENT_THEORY":"SGP4","MEAN_MOTION":"15.06394903","MEAN_ANOMALY":"305.0718","LAUNCH_DATE":"2021-01-20","RCS_SIZE":"LARGE","RA_OF_ASC_NODE":"97.4469","CLASSIFICATION_TYPE":"U","TLE_LINE2":"2 47391  53.0561  97.4469 0001815  55.0441 305.0718 15.06394903 63686","PERIAPSIS":"545.972","TLE_LINE1":"1 47391U 21005AU  22071.55147744  .00000007  00000-0  19405-4 0  9991","INCLINATION":"53.0561","COUNTRY_CODE":"US","OBJECT_TYPE":"PAYLOAD","DECAY_DATE":null,"TIME_SYSTEM":"UTC"},{"APOAPSIS":"548.400","MEAN_MOTION_DDOT":"0.0000000000000","REV_AT_EPOCH":"6373","SITE":"AFETR","BSTAR":"-0.00025056000000","CENTER_NAME":"EARTH","ECCENTRICITY":"0.00017460","EPOCH":"2022-03-12T21:13:11.300448","NORAD_CAT_ID":"47392","ELEMENT_SET_NO":"999","REF_FRAME":"TEME","PERIOD":"95.592","ARG_OF_PERICENTER":"63.4186","OBJECT_ID":"2021-005AV","MEAN_MOTION_DOT":"-0.00004013","OBJECT_NAME":"STARLINK-2113","SEMIMAJOR_AXIS":"6925.326","FILE":"3356931","EPHEMERIS_TYPE":"0","MEAN_ELEMENT_THEORY":"SGP4","GP_ID":"198604137","MEAN_MOTION":"15.06407511","MEAN_ANOMALY":"296.6982","CLASSIFICATION_TYPE":"U","TLE_LINE2":"2 47392  53.0546  95.9559 0001746  63.4186 296.6982 15.06407511 63739","PERIAPSIS":"545.981","LAUNCH_DATE":"2021-01-20","RCS_SIZE":"LARGE","RA_OF_ASC_NODE":"95.9559","DECAY_DATE":null,"TIME_SYSTEM":"UTC","TLE_LINE1":"1 47392U 21005AV  22071.88415857 -.00004013  00000-0 -25056-3 0  9992","COUNTRY_CODE":"US","INCLINATION":"53.0546","OBJECT_TYPE":"PAYLOAD"},{"CENTER_NAME":"EARTH","ECCENTRICITY":"0.00016850","NORAD_CAT_ID":"47393","EPOCH":"2022-03-12T09:53:04.933824","APOAPSIS":"548.371","MEAN_MOTION_DDOT":"0.0000000000000","SITE":"AFETR","REV_AT_EPOCH":"6401","BSTAR":"0.00008592700000","MEAN_MOTION_DOT":"0.00000999","OBJECT_NAME":"STARLINK-2114","FILE":"3356520","SEMIMAJOR_AXIS":"6925.339","ELEMENT_SET_NO":"999","REF_FRAME":"TEME","PERIOD":"95.592","OBJECT_ID":"2021-005AW","ARG_OF_PERICENTER":"55.9999","MEAN_ANOMALY":"304.1150","MEAN_MOTION":"15.06403106","EPHEMERIS_TYPE":"0","GP_ID":"198570540","MEAN_ELEMENT_THEORY":"SGP4","DECAY_DATE":null,"TIME_SYSTEM":"UTC","TLE_LINE1":"1 47393U 21005AW  22071.41186266  .00000999  00000-0  85927-4 0  9992","OBJECT_TYPE":"PAYLOAD","COUNTRY_CODE":"US","INCLINATION":"53.0547","TLE_LINE2":"2 47393  53.0547  73.0730 0001685  55.9999 304.1150 15.06403106 64019","CLASSIFICATION_TYPE":"U","PERIAPSIS":"546.037","LAUNCH_DATE":"2021-01-20","RA_OF_ASC_NODE":"73.0730","RCS_SIZE":"LARGE"}];
